start=new Date('2021-08-24T00:00:00.000Z').valueOf();
sats=[{"COUNTRY_CODE":"US","MEAN_MOTION_DDOT":"0.0000000000000","FILE":"3102124","CENTER_NAME":"EARTH","MEAN_ANOMALY":"258.7831","TLE_LINE1":"1 46549U 20070T   21235.92167145 -.00001057  00000-0 -52098-4 0  9998","LAUNCH_DATE":"2020-10-06","OBJECT_TYPE":"PAYLOAD","MEAN_MOTION_DOT":"-0.00001057","GP_ID":"183331043","RA_OF_ASC_NODE":"63.1265","OBJECT_NAME":"STARLINK-1700","CLASSIFICATION_TYPE":"U","OBJECT_ID":"2020-070T","NORAD_CAT_ID":"46549","APOAPSIS":"548.499","BSTAR":"-0.00005209800000","EPHEMERIS_TYPE":"0","MEAN_ELEMENT_THEORY":"SGP4","ARG_OF_PERICENTER":"101.3363","REV_AT_EPOCH":"4948","ECCENTRICITY":"0.00018280","TLE_LINE2":"2 46549  53.0555  63.1265 0001828 101.3363 258.7831 15.06393669 49489","REF_FRAME":"TEME","SITE":"AFETR","PERIAPSIS":"545.967","PERIOD":"95.593","RCS_SIZE":"LARGE","TIME_SYSTEM":"UTC","MEAN_MOTION":"15.06393669","DECAY_DATE":null,"ELEMENT_SET_NO":"999","SEMIMAJOR_AXIS":"6925.368","EPOCH":"2021-08-23T22:07:12.413280","INCLINATION":"53.0555"},{"ECCENTRICITY":"0.00016220","REV_AT_EPOCH":"4947","REF_FRAME":"TEME","TLE_LINE2":"2 46550  53.0549  63.4815 0001622 115.8387 244.2769 15.06387810 49476","NORAD_CAT_ID":"46550","EPHEMERIS_TYPE":"0","MEAN_ELEMENT_THEORY":"SGP4","ARG_OF_PERICENTER":"115.8387","APOAPSIS":"548.374","BSTAR":"0.00005785300000","DECAY_DATE":null,"MEAN_MOTION":"15.06387810","ELEMENT_SET_NO":"999","TIME_SYSTEM":"UTC","INCLINATION":"53.0549","SEMIMAJOR_AXIS":"6925.386","EPOCH":"2021-08-23T20:11:47.965632","PERIAPSIS":"546.128","SITE":"AFETR","PERIOD":"95.593","RCS_SIZE":"LARGE","MEAN_ANOMALY":"244.2769","LAUNCH_DATE":"2020-10-06","OBJECT_TYPE":"PAYLOAD","TLE_LINE1":"1 46550U 20070U   21235.84152738  .00000580  00000-0  57853-4 0  9995","MEAN_MOTION_DDOT":"0.0000000000000","FILE":"3102124","COUNTRY_CODE":"US","CENTER_NAME":"EARTH","CLASSIFICATION_TYPE":"U","OBJECT_ID":"2020-070U","GP_ID":"183331294","MEAN_MOTION_DOT":"0.00000580","OBJECT_NAME":"STARLINK-1701","RA_OF_ASC_NODE":"63.4815"},{"TIME_SYSTEM":"UTC","ELEMENT_SET_NO":"999","MEAN_MOTION":"15.06391933","DECAY_DATE":null,"EPOCH":"2021-08-23T19:12:45.226080","SEMIMAJOR_AXIS":"6925.373","INCLINATION":"53.0564","SITE":"AFETR","PERIAPSIS":"545.786","RCS_SIZE":"LARGE","PERIOD":"95.593","REV_AT_EPOCH":"4968","ECCENTRICITY":"0.00020970","TLE_LINE2":"2 46552  53.0564  48.6708 0002097  90.5616 269.5613 15.06391933 49684","REF_FRAME":"TEME","NORAD_CAT_ID":"46552","BSTAR":"-0.00006361300000","APOAPSIS":"548.691","ARG_OF_PERICENTER":"90.5616","MEAN_ELEMENT_THEORY":"SGP4","EPHEMERIS_TYPE":"0","CLASSIFICATION_TYPE":"U","OBJECT_ID":"2020-070W","MEAN_MOTION_DOT":"-0.00001229","GP_ID":"183330042","RA_OF_ASC_NODE":"48.6708","OBJECT_NAME":"STARLINK-1649","MEAN_ANOMALY":"269.5613","TLE_LINE1":"1 46552U 20070W   21235.80052345 -.00001229  00000-0 -63613-4 0  9990","OBJECT_TYPE":"PAYLOAD","LAUNCH_DATE":"2020-10-06","COUNTRY_CODE":"US","FILE":"3102124","MEAN_MOTION_DDOT":"0.0000000000000","CENTER_NAME":"EARTH"},{"MEAN_MOTION_DDOT":"0.0000000000000","FILE":"3102124","COUNTRY_CODE":"US","CENTER_NAME":"EARTH","MEAN_ANOMALY":"252.8100","LAUNCH_DATE":"2020-10-06","OBJECT_TYPE":"PAYLOAD","TLE_LINE1":"1 46553U 20070X   21235.76225367 -.00000570  00000-0 -19348-4 0  9996","GP_ID":"183330292","MEAN_MOTION_DOT":"-0.00000570","OBJECT_NAME":"STARLINK-1664","RA_OF_ASC_NODE":"33.8443","CLASSIFICATION_TYPE":"U","OBJECT_ID":"2020-070X","NORAD_CAT_ID":"46553","EPHEMERIS_TYPE":"0","MEAN_ELEMENT_THEORY":"SGP4","ARG_OF_PERICENTER":"107.3085","APOAPSIS":"548.473","BSTAR":"-0.00001934800000","ECCENTRICITY":"0.00017920","REV_AT_EPOCH":"4988","REF_FRAME":"TEME","TLE_LINE2":"2 46553  53.0551  33.8443 0001792 107.3085 252.8100 15.06394061 49884","PERIAPSIS":"545.991","SITE":"AFETR","PERIOD":"95.593","RCS_SIZE":"LARGE","MEAN_MOTION":"15.06394061","DECAY_DATE":null,"ELEMENT_SET_NO":"999","TIME_SYSTEM":"UTC","INCLINATION":"53.0551","SEMIMAJOR_AXIS":"6925.367","EPOCH":"2021-08-23T18:17:38.717088"},{"OBJECT_ID":"2020-070Y","CLASSIFICATION_TYPE":"U","OBJECT_NAME":"STARLINK-1671","RA_OF_ASC_NODE":"48.9071","GP_ID":"183330543","MEAN_MOTION_DOT":"0.00000339","OBJECT_TYPE":"PAYLOAD","LAUNCH_DATE":"2020-10-06","TLE_LINE1":"1 46554U 20070Y   21235.74891376  .00000339  00000-0  41654-4 0  9990","MEAN_ANOMALY":"261.5526","CENTER_NAME":"EARTH","FILE":"3102124","MEAN_MOTION_DDOT":"0.0000000000000","COUNTRY_CODE":"US","INCLINATION":"53.0542","EPOCH":"2021-08-23T17:58:26.148864","SEMIMAJOR_AXIS":"6925.378","ELEMENT_SET_NO":"999","MEAN_MOTION":"15.06390541","DECAY_DATE":null,"TIME_SYSTEM":"UTC","RCS_SIZE":"LARGE","PERIOD":"95.593","PERIAPSIS":"546.037","SITE":"AFETR","REF_FRAME":"TEME","TLE_LINE2":"2 46554  53.0542  48.9071 0001741  98.5660 261.5526 15.06390541 49678","ECCENTRICITY":"0.00017410","REV_AT_EPOCH":"4967","ARG_OF_PERICENTER":"98.5660","MEAN_ELEMENT_THEORY":"SGP4","EPHEMERIS_TYPE":"0","BSTAR":"0.00004165400000","APOAPSIS":"548.448","NORAD_CAT_ID":"46554"},{"CLASSIFICATION_TYPE":"U","OBJECT_ID":"2020-070Z","MEAN_MOTION_DOT":"0.00138589","GP_ID":"183330794","RA_OF_ASC_NODE":"23.2659","OBJECT_NAME":"STARLINK-1674","MEAN_ANOMALY":"251.4289","TLE_LINE1":"1 46555U 20070Z   21235.88719001  .00138589  00000-0  88686-2 0  9993","LAUNCH_DATE":"2020-10-06","OBJECT_TYPE":"PAYLOAD","COUNTRY_CODE":"US","MEAN_MOTION_DDOT":"0.0000000000000","FILE":"3102124","CENTER_NAME":"EARTH","TIME_SYSTEM":"UTC","DECAY_DATE":null,"MEAN_MOTION":"15.07522414","ELEMENT_SET_NO":"999","SEMIMAJOR_AXIS":"6921.911","EPOCH":"2021-08-23T21:17:33.216864","INCLINATION":"53.0562","SITE":"AFETR","PERIAPSIS":"542.528","PERIOD":"95.521","RCS_SIZE":"LARGE","REV_AT_EPOCH":"5004","ECCENTRICITY":"0.00018020","TLE_LINE2":"2 46555  53.0562  23.2659 0001802 108.6896 251.4289 15.07522414 50045","REF_FRAME":"TEME","NORAD_CAT_ID":"46555","APOAPSIS":"545.023","BSTAR":"0.00886860000000","EPHEMERIS_TYPE":"0","ARG_OF_PERICENTER":"108.6896","MEAN_ELEMENT_THEORY":"SGP4"},{"LAUNCH_DATE":"2020-10-06","OBJECT_TYPE":"PAYLOAD","TLE_LINE1":"1 46556U 20070AA  21235.87469653 -.00000680  00000-0 -26724-4 0  9997","MEAN_ANOMALY":"261.5899","CENTER_NAME":"EARTH","MEAN_MOTION_DDOT":"0.0000000000000","FILE":"3102124","COUNTRY_CODE":"US","OBJECT_ID":"2020-070AA","CLASSIFICATION_TYPE":"U","OBJECT_NAME":"STARLINK-1676","RA_OF_ASC_NODE":"63.3326","GP_ID":"183329542","MEAN_MOTION_DOT":"-0.00000680","REF_FRAME":"TEME","TLE_LINE2":"2 46556  53.0554  63.3326 0001842  98.5299 261.5899 15.06394887 49486","ECCENTRICITY":"0.00018420","REV_AT_EPOCH":"4948","EPHEMERIS_TYPE":"0","ARG_OF_PERICENTER":"98.5299","MEAN_ELEMENT_THEORY":"SGP4","APOAPSIS":"548.505","BSTAR":"-0.00002672400000","NORAD_CAT_ID":"46556","INCLINATION":"53.0554","SEMIMAJOR_AXIS":"6925.364","EPOCH":"2021-08-23T20:59:33.780192","MEAN_MOTION":"15.06394887","DECAY_DATE":null,"ELEMENT_SET_NO":"999","TIME_SYSTEM":"UTC","PERIOD":"95.592","RCS_SIZE":"LARGE","PERIAPSIS":"545.954","SITE":"AFETR"},{"INCLINATION":"53.0554","SEMIMAJOR_AXIS":"6925.362","EPOCH":"2021-08-23T18:51:31.055040","DECAY_DATE":null,"MEAN_MOTION":"15.06395514","ELEMENT_SET_NO":"999","TIME_SYSTEM":"UTC","PERIOD":"95.592","RCS_SIZE":"LARGE","PERIAPSIS":"545.858","SITE":"AFETR","REF_FRAME":"TEME","TLE_LINE2":"2 46557  53.0554  48.7309 0001977 100.9168 259.2044 15.06395514 49683","ECCENTRICITY":"0.00019770","REV_AT_EPOCH":"4968","EPHEMERIS_TYPE":"0","MEAN_ELEMENT_THEORY":"SGP4","ARG_OF_PERICENTER":"100.9168","APOAPSIS":"548.596","BSTAR":"-0.00003137700000","NORAD_CAT_ID":"46557","OBJECT_ID":"2020-070AB","CLASSIFICATION_TYPE":"U","OBJECT_NAME":"STARLINK-1679","RA_OF_ASC_NODE":"48.7309","GP_ID":"183329792","MEAN_MOTION_DOT":"-0.00000749","LAUNCH_DATE":"2020-10-06","OBJECT_TYPE":"PAYLOAD","TLE_LINE1":"1 46557U 20070AB  21235.78577610 -.00000749  00000-0 -31377-4 0  9997","MEAN_ANOMALY":"259.2044","CENTER_NAME":"EARTH","MEAN_MOTION_DDOT":"0.0000000000000","FILE":"3102124","COUNTRY_CODE":"US"},{"PERIAPSIS":"545.965","SITE":"AFETR","PERIOD":"95.592","RCS_SIZE":"LARGE","MEAN_MOTION":"15.06400258","DECAY_DATE":null,"ELEMENT_SET_NO":"999","TIME_SYSTEM":"UTC","INCLINATION":"53.0570","SEMIMAJOR_AXIS":"6925.348","EPOCH":"2021-08-23T19:02:07.174176","NORAD_CAT_ID":"46558","EPHEMERIS_TYPE":"0","ARG_OF_PERICENTER":"107.6536","MEAN_ELEMENT_THEORY":"SGP4","APOAPSIS":"548.461","BSTAR":"0.00002405200000","ECCENTRICITY":"0.00018020","REV_AT_EPOCH":"4965","REF_FRAME":"TEME","TLE_LINE2":"2 46558  53.0570  48.7081 0001802 107.6536 252.4650 15.06400258 49656","GP_ID":"183331044","MEAN_MOTION_DOT":"0.00000077","OBJECT_NAME":"STARLINK-1680","RA_OF_ASC_NODE":"48.7081","CLASSIFICATION_TYPE":"U","OBJECT_ID":"2020-070AC","MEAN_MOTION_DDOT":"0.0000000000000","FILE":"3102124","COUNTRY_CODE":"US","CENTER_NAME":"EARTH","MEAN_ANOMALY":"252.4650","LAUNCH_DATE":"2020-10-06","OBJECT_TYPE":"PAYLOAD","TLE_LINE1":"1 46558U 20070AC  21235.79313859  .00000077  00000-0  24052-4 0  9996"},{"OBJECT_NAME":"STARLINK-1681","RA_OF_ASC_NODE":"33.4506","GP_ID":"183331295","MEAN_MOTION_DOT":"0.00001039","OBJECT_ID":"2020-070AD","CLASSIFICATION_TYPE":"U","CENTER_NAME":"EARTH","MEAN_MOTION_DDOT":"0.0000000000000","FILE":"3102124","COUNTRY_CODE":"US","LAUNCH_DATE":"2020-10-06","OBJECT_TYPE":"PAYLOAD","TLE_LINE1":"1 46559U 20070AD  21235.84796702  .00001039  00000-0  88616-4 0  9990","MEAN_ANOMALY":"251.7056","PERIOD":"95.592","RCS_SIZE":"LARGE","PERIAPSIS":"546.121","SITE":"AFETR","INCLINATION":"53.0554","SEMIMAJOR_AXIS":"6925.329","EPOCH":"2021-08-23T20:21:04.350528","DECAY_DATE":null,"MEAN_MOTION":"15.06406461","ELEMENT_SET_NO":"999","TIME_SYSTEM":"UTC","EPHEMERIS_TYPE":"0","MEAN_ELEMENT_THEORY":"SGP4","ARG_OF_PERICENTER":"108.4101","APOAPSIS":"548.266","BSTAR":"0.00008861600000","NORAD_CAT_ID":"46559","REF_FRAME":"TEME","TLE_LINE2":"2 46559  53.0554  33.4506 0001549 108.4101 251.7056 15.06406461 49897","ECCENTRICITY":"0.00015490","REV_AT_EPOCH":"4989"}];
